#dP2023  9 15  0  0  0.00000000      96 __u+U ITR00 FIT  IAC
## 2279 432000.00000000   900.00000000 60202 0.0000000000000
+  118   C06C07C08C09C10C11C12C13C14C16C19C20C21C22C23C24C25
+        C26C27C28C29C30C32C33C34C35C36C37C38C39C40C41C42C43
+        C44C45C46E02E03E04E05E07E08E09E10E11E12E13E14E15E18
+        E19E21E24E25E26E27E30E31E33E34E36G01G02G03G04G05G06
+        G07G08G09G10G11G12G13G14G15G16G17G18G19G20G21G22G23
+        G24G25G26G27G28G29G30G31G32J02J03J04R01R02R03R04R05
+        R07R08R09R11R12R13R14R15R16R17R18R19R20R21R22R24  0
++         9  9 10 11  9  8  8 10  9  9  6  7  7  7  5  6  7
++         6  5  6  7  7  8  6  8  4  7  7  8  8  8  7  7  6
++         7  7  6  7  6  7  5  6  5  6  8  7  7  5  7  6  6
++         6  6  6  8  7  6  5  6  7  5  7  5  6  6  6  5  6
++         6  6  0  3  5  8  6  4  6  6  6  6  6  5  6  5  4
++         5  7  5  4  7  6  6  5  5  7  8  6  6  6  6  7  6
++         5  8  7  7  6  6  6  6  6  5  5  8  8  6  5  5  0
%c M  cc GPS ccc cccc cccc cccc cccc ccccc ccccc ccccc ccccc
%c cc cc ccc ccc cccc cccc cccc cccc ccccc ccccc ccccc ccccc
%f  0.0000000  0.000000000  0.00000000000  0.000000000000000
%f  0.0000000  0.000000000  0.00000000000  0.000000000000000
%i    0    0    0    0      0      0      0      0         0
%i    0    0    0    0      0      0      0      0         0
/* INFORMATION & ANALYSIS CENTER (IAC)      ULTRA-RAPID DATA
/* S/V CLOCKS ARE ALIGNED TO GNSS TIME                      
/* G:C1WC2W R:C1PC2P E:C1XC5X C:C2IC6I J:C1CC2S             
/* PCV:IGS20_2274 OL/AL:FES2004  NONE     YN ORB:CoN CLK:CoN
*  2023 09 15  0 30  0.00000000
PC06 -14595.321572  24808.317424 -30891.605765     35.897487
PC07 -11816.200558  40248.984057  -2807.722678     -5.864822
PC08   1019.313473  27828.906909  31718.719061    344.974382
PC09  -6761.251645  24581.012319 -33250.249550    165.230347
PC10  -5620.861950  41299.365186   4235.946643   -178.622587
PC11  19491.905124   5659.931611  19234.698001    832.500685
PC12    876.383916  16105.767096  22809.976763    938.051819
PC13   6522.638730  31498.403953  27553.251460    351.915645
PC14  12938.700261  13505.368536 -20687.660569    407.516817
PC16 -19784.539381  23528.196129 -28745.094796    -80.500245
PC19 -15463.713402  -2842.158223  23069.629001   -970.409741
PC20  -9123.976160 -20791.211185  16243.894295    282.918098
PC21  -3339.721905  27674.577127   1037.940678   -969.960894
PC22 -13264.024647  17732.300535  16955.279620   -307.287112
PC23  17441.487591  -6128.333998  20915.052272   -871.749622
PC24  17461.776268  20016.960074  -8605.468619    392.991934
PC25  24837.848336   8576.269232   9420.819572    211.437470
PC26   1472.739321  18841.143539 -20556.877314   -177.792198
PC27   8175.736592 -18399.127315 -19340.124888    199.317594
PC28  22669.249176 -14978.566816  -6381.211560    149.537572
PC29 -24808.569911   2470.136666 -12535.924407    174.632730
PC30 -11265.518527 -12022.915418 -22530.913100     -4.930285
PC32   3188.526408 -27705.529176  -1143.761147   -528.668904
PC33  15493.883126   2844.136288 -23039.839610   -966.461607
PC34  12638.784987  11178.504075  22214.360194    259.649991
PC35 -22165.100917  15783.710334   6254.985234    546.342687
PC36 -24633.130009  -9790.027489  -8680.870294   -225.831380
PC37   -110.582691 -18503.261769  20897.785738   -827.777920
PC38  -7399.710544  24057.164617  33884.598310    104.829779
PC39 -24203.075521  23756.839282 -25167.414926     -4.787397
PC40 -18110.886632  37469.850942  -5762.037570    -36.530929
PC41  13456.150111 -17149.467167 -17383.646048   -878.500008
PC42   8375.686496  21871.158575 -15121.910936   -547.265315
PC43  24525.834177  -1685.862995  13184.111738     39.768186
PC44  -7664.754478  18823.205551  19120.919516    231.661301
PC45 -16950.857597   6481.640871 -21188.594293    -25.611931
PC46 -18315.659733 -19648.835476   7487.545363    -84.327019
PE02  18848.778591  14529.485008  17613.756771     62.771759
PE03  18463.339353   2519.959173 -23009.214648    -55.979042
PE04 -22265.760854  16128.982081  10966.050894   -212.253232
PE05   3894.385258  19764.684197 -21689.581133     18.432852
PE07  13260.732854 -25435.638123   7326.687221    -74.887502
PE08  22264.785246 -15828.354921 -11418.265477   -146.339566
PE09 -13358.964890  25399.489582  -7225.514902   -156.672177
PE10 -18940.277956  10513.931285  20156.045510   -563.799478
PE11  -8010.836036  14781.615154  24350.245858   2929.588478
PE12 -25981.069993   5062.341070  13249.966253   -697.916336
PE13   8800.405783 -14511.438553 -24251.196980    -19.642778
PE14   -469.707375  18647.098936  14450.058934    340.576944
PE15  26199.716232  -4799.897708 -12913.712070    -53.303074
PE18   1976.402758 -25890.594252 -19275.036905    531.756796
PE19 -16929.694358  -5058.260904  23749.754125  -1630.112564
PE21 -11936.361326 -27050.112345  -1399.386796   -552.663297
PE24  -2848.364209  24219.488551 -16798.399219   -321.960455
PE25  11735.082023  27156.362916   1070.444329     -1.825681
PE26 -14187.665678 -15601.235588 -20765.223090    222.685222
PE27   2304.601869 -24525.197574  16415.692648   -150.146312
PE30  15285.087897  -7102.160831  24330.154972   -500.676160
PE31 -15008.754889   7596.439292 -24342.194298     -5.111897
PE33 -27776.330977  -7937.072745  -6415.249453     -0.519432
PE34  28044.876665   7521.888407   5795.323240    -67.084801
PE36  13497.925227  15593.305551  21233.927946   -116.242381
PG01 -15791.330384 -13903.624646 -16757.446453    165.483915
PG02  -9257.801917 -14378.265763 -19869.483651   -553.876720
PG03 -12592.304195 -22820.209332   5258.111212   -134.879064
PG04  -8044.085214 -13464.149727  21426.787521    156.170077
PG05   4033.510747  24524.412769   9044.662801   -142.748409
PG06 -20913.150061   6594.347069  15117.471292    550.097144
PG07 -25934.423659  -6313.036000   3112.630405     67.107115
PG08    603.466115 -20420.699009 -16828.962345   -142.293975
PG09 -15223.933143  -4679.548847  21177.418593 999999.999999
PG10  14032.380962  -4494.672062 -21923.578894    -53.431988
PG11  -8338.938680  13372.741227  21385.125056   -369.064936
PG12   9057.212006  24922.438531   1848.061664   -424.828455
PG13 -10488.459047  21190.768774 -12074.191664    572.596335
PG14 -15907.630465    852.185303 -21248.316313    185.094745
PG15   3004.032801  20189.702895 -17352.953107     77.577924
PG16   2556.864392 -22800.696778  12669.877147   -454.068516
PG17 -20911.032889  10890.658736 -11902.696280    723.731134
PG18  26240.535562   4700.834260    204.781854   -417.484147
PG19 -20602.792305  15724.267212  -5107.940265    371.590143
PG20  -3487.022925  19278.348669  18056.185265    411.853142
PG21  -7027.150544 -14816.041355 -20549.691205    148.888648
PG22 -12669.475346   9058.411968 -21089.282191    121.692296
PG23  17189.262200   8971.875715 -18224.812864     68.493179
PG24  11815.577952  14881.146083 -19095.179394   -319.618573
PG25  16512.012306  16189.995577  12982.445878    467.781753
PG26   8795.401482 -15365.657704  19576.669075    228.457478
PG27  11388.722005 -22619.457322  -7515.556748    -39.569858
PG28  22106.542291  -6581.155824  13149.166008     -9.902275
PG29  14857.431308   5308.556083  21337.519966   -609.298902
PG30 -25700.525365   1096.516755  -7023.537727   -487.725219
PG31  14340.512004 -11290.664374  19249.724122   -223.378537
PG32  19834.793430 -14848.626672  -9100.688257   -557.995043
PJ02 -20517.402945  25039.332554 -22394.096029     -4.031616
PJ03 -30687.539996  25142.744496  19287.888181     -2.773847
PJ04 -28039.060320  28906.662632  18544.449331     70.620802
PR01   9555.217998 -22316.476472  -7853.116094     65.656578
PR02   1798.746305 -23247.989616  10298.246706    -22.421316
PR03  -7612.781286 -10855.974593  21817.567360     85.222002
PR04 -12341.952486   7134.647783  21179.240216    202.836681
PR05 -10691.807653  21325.419099   9076.200110    119.028363
PR07   7888.465541  10159.395947 -22004.169096     64.673220
PR08  12380.964034  -7367.962879 -20987.698088    -72.557060
PR09  10237.099654  19133.300822 -13320.256943    142.285113
PR11  17564.678691   5758.407380  17582.971545   -163.480513
PR12   5043.480164 -10429.823017  22753.668949     31.285831
PR13  -8555.020592 -18705.142765  15077.134743    -39.212779
PR14 -18990.476803 -16702.379052  -3392.842932     25.264388
PR15 -17044.821645  -4749.993327 -18352.062173     86.197731
PR16  -5123.747048  10111.985567 -22833.441188     18.696275
PR17 -17818.030304  -3953.708779 -17786.617497     17.306366
PR18 -24942.336566   4385.328476  -3205.841923    101.960721
PR19 -20528.917144   9531.341485  11749.358387   -247.274029
PR20   -934.488261  10681.764566  23155.129455   -100.052438
PR21  18571.657672   3523.269462  17147.318464    -38.085645
PR22  25092.310886  -3990.048359   2260.111531     84.151890
PR24   -238.201691 -11037.103021 -22979.561749    -24.398507
EOF
